ORBCOMM FM115 [+]       
1 41186U 15081H   23225.06483296  .00000918  00000+0  22577-3 0  9990
2 41186  47.0010 358.3407 0001424 233.3060 126.7696 14.59821777409193
ORBCOMM FM108 [+]       
1 41187U 15081J   23225.38416065  .00000800  00000+0  21851-3 0  9990
2 41187  47.0057  42.6870 0002085 119.3572 240.7521 14.55820325408622
ORBCOMM FM117 [+]       
1 41188U 15081K   23225.28052138  .00000904  00000+0  24206-3 0  9999
2 41188  47.0019  42.1517 0002874 127.0974 233.0173 14.55820635408624
ORBCOMM FM116 [+]       
1 41189U 15081L   23225.13330032  .00000829  00000+0  22499-3 0  9994
2 41189  47.0016 132.6497 0001963 222.9083 137.1649 14.55821037407435
